[{"OBJECT_NAME":"STARLINK-30992","OBJECT_ID":"2023-191S","EPOCH":"2026-03-09T11:49:24.138336","MEAN_MOTION":15.27227181,"ECCENTRICITY":0.00015435,"INCLINATION":43.0031,"RA_OF_ASC_NODE":104.3339,"ARG_OF_PERICENTER":249.8077,"MEAN_ANOMALY":110.2608,"EPHEMERIS_TYPE":0,"CLASSIFICATION_TYPE":"U","NORAD_CAT_ID":58524,"ELEMENT_SET_NO":999,"REV_AT_EPOCH":12544,"BSTAR":0.0021248429,"MEAN_MOTION_DOT":0.00058041,"MEAN_MOTION_DDOT":0},{"OBJECT_NAME":"COSMOS 2576","OBJECT_ID":"2024-092A","EPOCH":"2026-03-09T19:49:29.705664","MEAN_MOTION":15.27760963,"ECCENTRICITY":0.0005946,"INCLINATION":97.4253,"RA_OF_ASC_NODE":186.0053,"ARG_OF_PERICENTER":159.7731,"MEAN_ANOMALY":200.3745,"EPHEMERIS_TYPE":0,"CLASSIFICATION_TYPE":"U","NORAD_CAT_ID":59773,"ELEMENT_SET_NO":999,"REV_AT_EPOCH":10127,"BSTAR":0.00056283,"MEAN_MOTION_DOT":0.00015211,"MEAN_MOTION_DDOT":0}]
